{
  "type": "FeatureCollection",
  "features": [
    {
      "type": "Feature",
      "properties": {
        "norad_id": 19071,
        "name": "OSCAR 32",
        "group": "nnss",
        "lat": -46.058768090479155,
        "lon": -163.50633393751366,
        "alt_km": 1149.1160114464737,
        "timestamp": "2025-12-22T11:33:20.708075+00:00",
        "meta_object_name": "OSCAR 32",
        "meta_object_id": "1988-033B",
        "meta_epoch": "2025-12-21T19:01:45.302016",
        "meta_mean_motion": 13.27955349,
        "meta_eccentricity": 0.0189028,
        "meta_inclination": 90.3209,
        "meta_ra_of_asc_node": 16.8054,
        "meta_arg_of_pericenter": 141.7111,
        "meta_mean_anomaly": 32.0527,
        "meta_ephemeris_type": 0,
        "meta_classification_type": "U",
        "meta_norad_cat_id": 19071,
        "meta_element_set_no": 999,
        "meta_rev_at_epoch": 82385,
        "meta_bstar": 0.00015275,
        "meta_mean_motion_dot": 8.6e-07,
        "meta_mean_motion_ddot": 0,
        "tle_line1": "1 19071U 88033B   25355.79288544  .00000086  00000+0  15275-3 0  9993",
        "tle_line2": "2 19071  90.3209  16.8054 0189028 141.7111  32.0527 13.27955349823854"
      },
      "geometry": {
        "type": "Point",
        "coordinates": [
          -163.50633393751366,
          -46.058768090479155
        ]
      }
    },
    {
      "type": "Feature",
      "properties": {
        "norad_id": 19223,
        "name": "NOVA 2",
        "group": "nnss",
        "lat": -65.02318861004521,
        "lon": -101.71133803102154,
        "alt_km": 1186.606583626357,
        "timestamp": "2025-12-22T11:33:20.708085+00:00",
        "meta_object_name": "NOVA 2",
        "meta_object_id": "1988-052A",
        "meta_epoch": "2025-12-21T16:47:58.494048",
        "meta_mean_motion": 13.22936781,
        "meta_eccentricity": 0.0029831,
        "meta_inclination": 89.9868,
        "meta_ra_of_asc_node": 78.2613,
        "meta_arg_of_pericenter": 352.1473,
        "meta_mean_anomaly": 133.3245,
        "meta_ephemeris_type": 0,
        "meta_classification_type": "U",
        "meta_norad_cat_id": 19223,
        "meta_element_set_no": 999,
        "meta_rev_at_epoch": 81066,
        "meta_bstar": 0.00012945,
        "meta_mean_motion_dot": 6.3e-07,
        "meta_mean_motion_ddot": 0,
        "tle_line1": "1 19223U 88052A   25355.69998257  .00000063  00000+0  12945-3 0  9997",
        "tle_line2": "2 19223  89.9868  78.2613 0029831 352.1473 133.3245 13.22936781810666"
      },
      "geometry": {
        "type": "Point",
        "coordinates": [
          -101.71133803102154,
          -65.02318861004521
        ]
      }
    },
    {
      "type": "Feature",
      "properties": {
        "norad_id": 19419,
        "name": "OSCAR 25",
        "group": "nnss",
        "lat": -67.99224669685071,
        "lon": 20.359308280155506,
        "alt_km": 1087.1209289428698,
        "timestamp": "2025-12-22T11:33:20.708095+00:00",
        "meta_object_name": "OSCAR 25",
        "meta_object_id": "1988-074A",
        "meta_epoch": "2025-12-21T20:39:59.584320",
        "meta_mean_motion": 13.42625,
        "meta_eccentricity": 0.009496,
        "meta_inclination": 90.0337,
        "meta_ra_of_asc_node": 20.2738,
        "meta_arg_of_pericenter": 219.4473,
        "meta_mean_anomaly": 314.7401,
        "meta_ephemeris_type": 0,
        "meta_classification_type": "U",
        "meta_norad_cat_id": 19419,
        "meta_element_set_no": 999,
        "meta_rev_at_epoch": 82762,
        "meta_bstar": 0.00014504,
        "meta_mean_motion_dot": 9.3e-07,
        "meta_mean_motion_ddot": 0,
        "tle_line1": "1 19419U 88074A   25355.86110630  .00000093  00000+0  14504-3 0  9994",
        "tle_line2": "2 19419  90.0337  20.2738 0094960 219.4473 314.7401 13.42625000827626"
      },
      "geometry": {
        "type": "Point",
        "coordinates": [
          20.359308280155506,
          -67.99224669685071
        ]
      }
    },
    {
      "type": "Feature",
      "properties": {
        "norad_id": 19420,
        "name": "OSCAR 31",
        "group": "nnss",
        "lat": 7.136298227575329,
        "lon": -159.3682554294648,
        "alt_km": 1047.1483825312826,
        "timestamp": "2025-12-22T11:33:20.708105+00:00",
        "meta_object_name": "OSCAR 31",
        "meta_object_id": "1988-074B",
        "meta_epoch": "2025-12-22T03:53:19.034304",
        "meta_mean_motion": 13.42586261,
        "meta_eccentricity": 0.0093358,
        "meta_inclination": 90.0353,
        "meta_ra_of_asc_node": 20.6262,
        "meta_arg_of_pericenter": 212.7151,
        "meta_mean_anomaly": 217.5501,
        "meta_ephemeris_type": 0,
        "meta_classification_type": "U",
        "meta_norad_cat_id": 19420,
        "meta_element_set_no": 999,
        "meta_rev_at_epoch": 82777,
        "meta_bstar": 0.00014692,
        "meta_mean_motion_dot": 9.4e-07,
        "meta_mean_motion_ddot": 0,
        "tle_line1": "1 19420U 88074B   25356.16202586  .00000094  00000+0  14692-3 0  9991",
        "tle_line2": "2 19420  90.0353  20.6262 0093358 212.7151 217.5501 13.42586261827773"
      },
      "geometry": {
        "type": "Point",
        "coordinates": [
          -159.3682554294648,
          7.136298227575329
        ]
      }
    }
  ]
}